STARLINK-35801          
1 66265U 25247A   25333.27130633  .00045199  00000+0  11331-2 0  9994
2 66265  53.1594 301.1105 0001275 110.4187 249.6955 15.39624255  5616
STARLINK-35056          
1 66266U 25247B   25333.27097006  .00055520  00000+0  13875-2 0  9995
2 66266  53.1601 301.1081 0001377  96.2519 263.8643 15.39627816  5610
STARLINK-35550          
1 66267U 25247C   25333.25002315  .00061668  00000+0  15396-2 0  9993
2 66267  53.1584 299.7876 0001038  90.5217 128.6917 15.39612174  5399
STARLINK-35069          
1 66268U 25247D   25333.26666218  .00056352  00000+0  14079-2 0  9994
2 66268  53.1598 301.0797 0000988  87.8888 272.2230 15.39631383  5612
STARLINK-34910          
1 66269U 25247E   25333.25002315  .00043970  00000+0  11042-2 0  9995
2 66269  53.1587 299.7913 0001150  89.4665 127.9707 15.39583002  5728
STARLINK-35757          
1 66270U 25247F   25333.26632645  .00049083  00000+0  12287-2 0  9996
2 66270  53.1599 301.0778 0001181  90.2958 269.8182 15.39631086  5660
STARLINK-35745          
1 66271U 25247G   25333.26201850  .00058396  00000+0  14585-2 0  9997
2 66271  53.1599 301.0503 0001297  81.5341 278.5811 15.39624283  5661
STARLINK-35741          
1 66272U 25247H   25333.26168133  .00056931  00000+0  14222-2 0  9995
2 66272  53.1597 301.0482 0001285  83.1425 276.9726 15.39630015  5661
STARLINK-35730          
1 66273U 25247J   25333.25737459  .00060037  00000+0  14984-2 0  9995
2 66273  53.1599 301.0207 0001425  89.2635 270.8534 15.39634771  5668
STARLINK-35760          
1 66274U 25247K   25333.25703957  .00048457  00000+0  12135-2 0  9990
2 66274  53.1599 301.0181 0001479 104.2234 255.8935 15.39625338  5614
STARLINK-35752          
1 66275U 25247L   25333.25273142  .00050781  00000+0  12709-2 0  9999
2 66275  53.1593 300.9900 0001321  84.9964 275.1192 15.39623347  5614
STARLINK-35742          
1 66276U 25247M   25333.25239027  .00047203  00000+0  11816-2 0  9997
2 66276  53.1593 300.9877 0001495  82.7403 277.3772 15.39649992  5661
