CCSDS_OMM_VERS = 2.0
CREATION_DATE  = 
ORIGINATOR     = 

OBJECT_NAME    = STARLINK-35801
OBJECT_ID      = 2025-247A
CENTER_NAME    = EARTH
REF_FRAME      = TEME
TIME_SYSTEM    = UTC
MEAN_ELEMENT_THEORY = SGP/SGP4

EPOCH          = 2025-11-29T06:30:40.866912
MEAN_MOTION    = 15.39624255
ECCENTRICITY   = .00012751
INCLINATION    = 53.1594
RA_OF_ASC_NODE = 301.1105
ARG_OF_PERICENTER = 110.4187
MEAN_ANOMALY   = 249.6955

EPHEMERIS_TYPE = 0
CLASSIFICATION_TYPE = U
NORAD_CAT_ID   = 66265
ELEMENT_SET_NO = 999
REV_AT_EPOCH   = 561
BSTAR          = .11331124E-2
MEAN_MOTION_DOT = .45199E-3
MEAN_MOTION_DDOT = 0

CCSDS_OMM_VERS = 2.0
CREATION_DATE  = 
ORIGINATOR     = 

OBJECT_NAME    = STARLINK-35056
OBJECT_ID      = 2025-247B
CENTER_NAME    = EARTH
REF_FRAME      = TEME
TIME_SYSTEM    = UTC
MEAN_ELEMENT_THEORY = SGP/SGP4

EPOCH          = 2025-11-29T06:30:11.813184
MEAN_MOTION    = 15.39627816
ECCENTRICITY   = .00013771
INCLINATION    = 53.1601
RA_OF_ASC_NODE = 301.1081
ARG_OF_PERICENTER = 96.2519
MEAN_ANOMALY   = 263.8643

EPHEMERIS_TYPE = 0
CLASSIFICATION_TYPE = U
NORAD_CAT_ID   = 66266
ELEMENT_SET_NO = 999
REV_AT_EPOCH   = 561
BSTAR          = .13875275E-2
MEAN_MOTION_DOT = .5552E-3
MEAN_MOTION_DDOT = 0

CCSDS_OMM_VERS = 2.0
CREATION_DATE  = 
ORIGINATOR     = 

OBJECT_NAME    = STARLINK-35550
OBJECT_ID      = 2025-247C
CENTER_NAME    = EARTH
REF_FRAME      = TEME
TIME_SYSTEM    = UTC
MEAN_ELEMENT_THEORY = SGP/SGP4

EPOCH          = 2025-11-29T06:00:02.000160
MEAN_MOTION    = 15.39612174
ECCENTRICITY   = .00010382
INCLINATION    = 53.1584
RA_OF_ASC_NODE = 299.7876
ARG_OF_PERICENTER = 90.5217
MEAN_ANOMALY   = 128.6917

EPHEMERIS_TYPE = 0
CLASSIFICATION_TYPE = U
NORAD_CAT_ID   = 66267
ELEMENT_SET_NO = 999
REV_AT_EPOCH   = 539
BSTAR          = .15396337E-2
MEAN_MOTION_DOT = .61668E-3
MEAN_MOTION_DDOT = 0

CCSDS_OMM_VERS = 2.0
CREATION_DATE  = 
ORIGINATOR     = 

OBJECT_NAME    = STARLINK-35069
OBJECT_ID      = 2025-247D
CENTER_NAME    = EARTH
REF_FRAME      = TEME
TIME_SYSTEM    = UTC
MEAN_ELEMENT_THEORY = SGP/SGP4

EPOCH          = 2025-11-29T06:23:59.612352
MEAN_MOTION    = 15.39631383
ECCENTRICITY   = .00009885
INCLINATION    = 53.1598
RA_OF_ASC_NODE = 301.0797
ARG_OF_PERICENTER = 87.8888
MEAN_ANOMALY   = 272.2230

EPHEMERIS_TYPE = 0
CLASSIFICATION_TYPE = U
NORAD_CAT_ID   = 66268
ELEMENT_SET_NO = 999
REV_AT_EPOCH   = 561
BSTAR          = .14078664E-2
MEAN_MOTION_DOT = .56352E-3
MEAN_MOTION_DDOT = 0

CCSDS_OMM_VERS = 2.0
CREATION_DATE  = 
ORIGINATOR     = 

OBJECT_NAME    = STARLINK-34910
OBJECT_ID      = 2025-247E
CENTER_NAME    = EARTH
REF_FRAME      = TEME
TIME_SYSTEM    = UTC
MEAN_ELEMENT_THEORY = SGP/SGP4

EPOCH          = 2025-11-29T06:00:02.000160
MEAN_MOTION    = 15.39583002
ECCENTRICITY   = .00011508
INCLINATION    = 53.1587
RA_OF_ASC_NODE = 299.7913
ARG_OF_PERICENTER = 89.4665
MEAN_ANOMALY   = 127.9707

EPHEMERIS_TYPE = 0
CLASSIFICATION_TYPE = U
NORAD_CAT_ID   = 66269
ELEMENT_SET_NO = 999
REV_AT_EPOCH   = 572
BSTAR          = .11042268E-2
MEAN_MOTION_DOT = .4397E-3
MEAN_MOTION_DDOT = 0

CCSDS_OMM_VERS = 2.0
CREATION_DATE  = 
ORIGINATOR     = 

OBJECT_NAME    = STARLINK-35757
OBJECT_ID      = 2025-247F
CENTER_NAME    = EARTH
REF_FRAME      = TEME
TIME_SYSTEM    = UTC
MEAN_ELEMENT_THEORY = SGP/SGP4

EPOCH          = 2025-11-29T06:23:30.605280
MEAN_MOTION    = 15.39631086
ECCENTRICITY   = .00011818
INCLINATION    = 53.1599
RA_OF_ASC_NODE = 301.0778
ARG_OF_PERICENTER = 90.2958
MEAN_ANOMALY   = 269.8182

EPHEMERIS_TYPE = 0
CLASSIFICATION_TYPE = U
NORAD_CAT_ID   = 66270
ELEMENT_SET_NO = 999
REV_AT_EPOCH   = 566
BSTAR          = .12287089E-2
MEAN_MOTION_DOT = .49083E-3
MEAN_MOTION_DDOT = 0

CCSDS_OMM_VERS = 2.0
CREATION_DATE  = 
ORIGINATOR     = 

OBJECT_NAME    = STARLINK-35745
OBJECT_ID      = 2025-247G
CENTER_NAME    = EARTH
REF_FRAME      = TEME
TIME_SYSTEM    = UTC
MEAN_ELEMENT_THEORY = SGP/SGP4

EPOCH          = 2025-11-29T06:17:18.398400
MEAN_MOTION    = 15.39624283
ECCENTRICITY   = .00012976
INCLINATION    = 53.1599
RA_OF_ASC_NODE = 301.0503
ARG_OF_PERICENTER = 81.5341
MEAN_ANOMALY   = 278.5811

EPHEMERIS_TYPE = 0
CLASSIFICATION_TYPE = U
NORAD_CAT_ID   = 66271
ELEMENT_SET_NO = 999
REV_AT_EPOCH   = 566
BSTAR          = .14585147E-2
MEAN_MOTION_DOT = .58396E-3
MEAN_MOTION_DDOT = 0

CCSDS_OMM_VERS = 2.0
CREATION_DATE  = 
ORIGINATOR     = 

OBJECT_NAME    = STARLINK-35741
OBJECT_ID      = 2025-247H
CENTER_NAME    = EARTH
REF_FRAME      = TEME
TIME_SYSTEM    = UTC
MEAN_ELEMENT_THEORY = SGP/SGP4

EPOCH          = 2025-11-29T06:16:49.266912
MEAN_MOTION    = 15.39630015
ECCENTRICITY   = .0001285
INCLINATION    = 53.1597
RA_OF_ASC_NODE = 301.0482
ARG_OF_PERICENTER = 83.1425
MEAN_ANOMALY   = 276.9726

EPHEMERIS_TYPE = 0
CLASSIFICATION_TYPE = U
NORAD_CAT_ID   = 66272
ELEMENT_SET_NO = 999
REV_AT_EPOCH   = 566
BSTAR          = .14221764E-2
MEAN_MOTION_DOT = .56931E-3
MEAN_MOTION_DDOT = 0

CCSDS_OMM_VERS = 2.0
CREATION_DATE  = 
ORIGINATOR     = 

OBJECT_NAME    = STARLINK-35730
OBJECT_ID      = 2025-247J
CENTER_NAME    = EARTH
REF_FRAME      = TEME
TIME_SYSTEM    = UTC
MEAN_ELEMENT_THEORY = SGP/SGP4

EPOCH          = 2025-11-29T06:10:37.164576
MEAN_MOTION    = 15.39634771
ECCENTRICITY   = .00014258
INCLINATION    = 53.1599
RA_OF_ASC_NODE = 301.0207
ARG_OF_PERICENTER = 89.2635
MEAN_ANOMALY   = 270.8534

EPHEMERIS_TYPE = 0
CLASSIFICATION_TYPE = U
NORAD_CAT_ID   = 66273
ELEMENT_SET_NO = 999
REV_AT_EPOCH   = 566
BSTAR          = .1498383E-2
MEAN_MOTION_DOT = .60037E-3
MEAN_MOTION_DDOT = 0

CCSDS_OMM_VERS = 2.0
CREATION_DATE  = 
ORIGINATOR     = 

OBJECT_NAME    = STARLINK-35760
OBJECT_ID      = 2025-247K
CENTER_NAME    = EARTH
REF_FRAME      = TEME
TIME_SYSTEM    = UTC
MEAN_ELEMENT_THEORY = SGP/SGP4

EPOCH          = 2025-11-29T06:10:08.218848
MEAN_MOTION    = 15.39625338
ECCENTRICITY   = .0001479
INCLINATION    = 53.1599
RA_OF_ASC_NODE = 301.0181
ARG_OF_PERICENTER = 104.2234
MEAN_ANOMALY   = 255.8935

EPHEMERIS_TYPE = 0
CLASSIFICATION_TYPE = U
NORAD_CAT_ID   = 66274
ELEMENT_SET_NO = 999
REV_AT_EPOCH   = 561
BSTAR          = .12135101E-2
MEAN_MOTION_DOT = .48457E-3
MEAN_MOTION_DDOT = 0

CCSDS_OMM_VERS = 2.0
CREATION_DATE  = 
ORIGINATOR     = 

OBJECT_NAME    = STARLINK-35752
OBJECT_ID      = 2025-247L
CENTER_NAME    = EARTH
REF_FRAME      = TEME
TIME_SYSTEM    = UTC
MEAN_ELEMENT_THEORY = SGP/SGP4

EPOCH          = 2025-11-29T06:03:55.994688
MEAN_MOTION    = 15.39623347
ECCENTRICITY   = .00013218
INCLINATION    = 53.1593
RA_OF_ASC_NODE = 300.9900
ARG_OF_PERICENTER = 84.9964
MEAN_ANOMALY   = 275.1192

EPHEMERIS_TYPE = 0
CLASSIFICATION_TYPE = U
NORAD_CAT_ID   = 66275
ELEMENT_SET_NO = 999
REV_AT_EPOCH   = 561
BSTAR          = .12709273E-2
MEAN_MOTION_DOT = .50781E-3
MEAN_MOTION_DDOT = 0

CCSDS_OMM_VERS = 2.0
CREATION_DATE  = 
ORIGINATOR     = 

OBJECT_NAME    = STARLINK-35742
OBJECT_ID      = 2025-247M
CENTER_NAME    = EARTH
REF_FRAME      = TEME
TIME_SYSTEM    = UTC
MEAN_ELEMENT_THEORY = SGP/SGP4

EPOCH          = 2025-11-29T06:03:26.519328
MEAN_MOTION    = 15.39649992
ECCENTRICITY   = .00014957
INCLINATION    = 53.1593
RA_OF_ASC_NODE = 300.9877
ARG_OF_PERICENTER = 82.7403
MEAN_ANOMALY   = 277.3772

EPHEMERIS_TYPE = 0
CLASSIFICATION_TYPE = U
NORAD_CAT_ID   = 66276
ELEMENT_SET_NO = 999
REV_AT_EPOCH   = 566
BSTAR          = .11815781E-2
MEAN_MOTION_DOT = .47203E-3
MEAN_MOTION_DDOT = 0

